ONEWEB-0275             
1 48993U 21060AC  24158.33506896  .00000063  00000+0  13111-3 0  9990
2 48993  87.9111  16.2585 0002057  84.4564 275.6801 13.16592897143361
ONEWEB-0276             
1 48994U 21060AD  24158.52031175  .00000121  00000+0  28283-3 0  9996
2 48994  87.9113  16.2180 0002133  83.0276 277.1098 13.16593321143419
ONEWEB-0277             
1 48995U 21060AE  24158.30498666  .00000098  00000+0  22385-3 0  9995
2 48995  87.9112  16.2989 0002380  88.3325 271.8078 13.16593482143364
ONEWEB-0278             
1 48996U 21060AF  24157.83950867  .00000155  00000+0  37276-3 0  9998
2 48996  87.9115  16.3502 0001785  74.4828 285.6500 13.16593598142148
ONEWEB-0279             
1 48997U 21060AG  24158.30340389  .00000005  00000+0 -19738-4 0  9993
2 48997  87.9113  16.2558 0002251  89.7268 270.4120 13.16593595143433
ONEWEB-0280             
1 48998U 21060AH  24157.86167253 -.00000005  00000+0 -45423-4 0  9992
2 48998  87.9115  16.3445 0002029  78.8069 281.3290 13.16592888142019
ONEWEB-0281             
1 48999U 21060AJ  24157.86800551 -.00000015  00000+0 -73857-4 0  9991
2 48999  87.9112  16.3453 0001692  90.3569 269.7756 13.16592432142084
ONEWEB-0282             
1 49000U 21060AK  24157.89808845  .00000152  00000+0  36358-3 0  9996
2 49000  87.9115  16.3561 0002183  82.6541 277.4837 13.16592818142063
